CCSDS_OMM_VERS = 2.0
CREATION_DATE  = 
ORIGINATOR     = 

OBJECT_NAME    = STARLINK-35488
OBJECT_ID      = 2025-245W
CENTER_NAME    = EARTH
REF_FRAME      = TEME
TIME_SYSTEM    = UTC
MEAN_ELEMENT_THEORY = SGP/SGP4

EPOCH          = 2025-11-26T15:37:00.154272
MEAN_MOTION    = 15.49328186
ECCENTRICITY   = .0002007
INCLINATION    = 53.1608
RA_OF_ASC_NODE = 45.1344
ARG_OF_PERICENTER = 48.5980
MEAN_ANOMALY   = 311.5201

EPHEMERIS_TYPE = 0
CLASSIFICATION_TYPE = U
NORAD_CAT_ID   = 66254
ELEMENT_SET_NO = 999
REV_AT_EPOCH   = 544
BSTAR          = .14124E-2
MEAN_MOTION_DOT = .78956E-3
MEAN_MOTION_DDOT = 0

CCSDS_OMM_VERS = 2.0
CREATION_DATE  = 
ORIGINATOR     = 

OBJECT_NAME    = STARLINK-35616
OBJECT_ID      = 2025-245X
CENTER_NAME    = EARTH
REF_FRAME      = TEME
TIME_SYSTEM    = UTC
MEAN_ELEMENT_THEORY = SGP/SGP4

EPOCH          = 2025-11-26T20:00:01.000224
MEAN_MOTION    = 15.49353096
ECCENTRICITY   = .0001195
INCLINATION    = 53.1596
RA_OF_ASC_NODE = 44.2552
ARG_OF_PERICENTER = 88.0246
MEAN_ANOMALY   = 213.3285

EPHEMERIS_TYPE = 0
CLASSIFICATION_TYPE = U
NORAD_CAT_ID   = 66255
ELEMENT_SET_NO = 999
REV_AT_EPOCH   = 554
BSTAR          = -.20087E-2
MEAN_MOTION_DOT = -.110769E-2
MEAN_MOTION_DDOT = 0

CCSDS_OMM_VERS = 2.0
CREATION_DATE  = 
ORIGINATOR     = 

OBJECT_NAME    = STARLINK-35619
OBJECT_ID      = 2025-245Y
CENTER_NAME    = EARTH
REF_FRAME      = TEME
TIME_SYSTEM    = UTC
MEAN_ELEMENT_THEORY = SGP/SGP4

EPOCH          = 2025-11-26T14:02:07.482048
MEAN_MOTION    = 15.49421781
ECCENTRICITY   = .0001321
INCLINATION    = 53.1605
RA_OF_ASC_NODE = 45.4325
ARG_OF_PERICENTER = 157.1070
MEAN_ANOMALY   = 202.9998

EPHEMERIS_TYPE = 0
CLASSIFICATION_TYPE = U
NORAD_CAT_ID   = 66256
ELEMENT_SET_NO = 999
REV_AT_EPOCH   = 543
BSTAR          = .20222E-2
MEAN_MOTION_DOT = .114127E-2
MEAN_MOTION_DDOT = 0

CCSDS_OMM_VERS = 2.0
CREATION_DATE  = 
ORIGINATOR     = 

OBJECT_NAME    = STARLINK-35615
OBJECT_ID      = 2025-245Z
CENTER_NAME    = EARTH
REF_FRAME      = TEME
TIME_SYSTEM    = UTC
MEAN_ELEMENT_THEORY = SGP/SGP4

EPOCH          = 2025-11-26T20:13:40.837728
MEAN_MOTION    = 15.51448200
ECCENTRICITY   = .0006794
INCLINATION    = 53.1593
RA_OF_ASC_NODE = 44.1958
ARG_OF_PERICENTER = 308.0037
MEAN_ANOMALY   = 52.0359

EPHEMERIS_TYPE = 0
CLASSIFICATION_TYPE = U
NORAD_CAT_ID   = 66257
ELEMENT_SET_NO = 999
REV_AT_EPOCH   = 547
BSTAR          = .2194E-1
MEAN_MOTION_DOT = .1450089E-1
MEAN_MOTION_DDOT = 0

CCSDS_OMM_VERS = 2.0
CREATION_DATE  = 
ORIGINATOR     = 

OBJECT_NAME    = STARLINK-34650
OBJECT_ID      = 2025-245AA
CENTER_NAME    = EARTH
REF_FRAME      = TEME
TIME_SYSTEM    = UTC
MEAN_ELEMENT_THEORY = SGP/SGP4

EPOCH          = 2025-11-26T17:08:54.146976
MEAN_MOTION    = 15.49326393
ECCENTRICITY   = .0001434
INCLINATION    = 53.1603
RA_OF_ASC_NODE = 44.8185
ARG_OF_PERICENTER = 44.7382
MEAN_ANOMALY   = 315.3742

EPHEMERIS_TYPE = 0
CLASSIFICATION_TYPE = U
NORAD_CAT_ID   = 66258
ELEMENT_SET_NO = 999
REV_AT_EPOCH   = 545
BSTAR          = .15549E-2
MEAN_MOTION_DOT = .87051E-3
MEAN_MOTION_DDOT = 0

CCSDS_OMM_VERS = 2.0
CREATION_DATE  = 
ORIGINATOR     = 

OBJECT_NAME    = STARLINK-35529
OBJECT_ID      = 2025-245AB
CENTER_NAME    = EARTH
REF_FRAME      = TEME
TIME_SYSTEM    = UTC
MEAN_ELEMENT_THEORY = SGP/SGP4

EPOCH          = 2025-11-26T15:34:01.807392
MEAN_MOTION    = 15.49333702
ECCENTRICITY   = .0001712
INCLINATION    = 53.1607
RA_OF_ASC_NODE = 45.1213
ARG_OF_PERICENTER = 9.4036
MEAN_ANOMALY   = 350.7005

EPHEMERIS_TYPE = 0
CLASSIFICATION_TYPE = U
NORAD_CAT_ID   = 66259
ELEMENT_SET_NO = 999
REV_AT_EPOCH   = 544
BSTAR          = .65035E-3
MEAN_MOTION_DOT = .3592E-3
MEAN_MOTION_DDOT = 0

CCSDS_OMM_VERS = 2.0
CREATION_DATE  = 
ORIGINATOR     = 

OBJECT_NAME    = STARLINK-35420
OBJECT_ID      = 2025-245AC
CENTER_NAME    = EARTH
REF_FRAME      = TEME
TIME_SYSTEM    = UTC
MEAN_ELEMENT_THEORY = SGP/SGP4

EPOCH          = 2025-11-26T09:22:57.321408
MEAN_MOTION    = 15.49372010
ECCENTRICITY   = .0001117
INCLINATION    = 53.1599
RA_OF_ASC_NODE = 46.3553
ARG_OF_PERICENTER = 112.7213
MEAN_ANOMALY   = 247.3915

EPHEMERIS_TYPE = 0
CLASSIFICATION_TYPE = U
NORAD_CAT_ID   = 66260
ELEMENT_SET_NO = 999
REV_AT_EPOCH   = 540
BSTAR          = .11676E-2
MEAN_MOTION_DOT = .65175E-3
MEAN_MOTION_DDOT = 0

CCSDS_OMM_VERS = 2.0
CREATION_DATE  = 
ORIGINATOR     = 

OBJECT_NAME    = STARLINK-35536
OBJECT_ID      = 2025-245AD
CENTER_NAME    = EARTH
REF_FRAME      = TEME
TIME_SYSTEM    = UTC
MEAN_ELEMENT_THEORY = SGP/SGP4

EPOCH          = 2025-11-26T09:21:58.038912
MEAN_MOTION    = 15.49371337
ECCENTRICITY   = .0001115
INCLINATION    = 53.1609
RA_OF_ASC_NODE = 46.3508
ARG_OF_PERICENTER = 87.8161
MEAN_ANOMALY   = 272.2976

EPHEMERIS_TYPE = 0
CLASSIFICATION_TYPE = U
NORAD_CAT_ID   = 66261
ELEMENT_SET_NO = 999
REV_AT_EPOCH   = 540
BSTAR          = .11521E-2
MEAN_MOTION_DOT = .64298E-3
MEAN_MOTION_DDOT = 0

CCSDS_OMM_VERS = 2.0
CREATION_DATE  = 
ORIGINATOR     = 

OBJECT_NAME    = STARLINK-35487
OBJECT_ID      = 2025-245AE
CENTER_NAME    = EARTH
REF_FRAME      = TEME
TIME_SYSTEM    = UTC
MEAN_ELEMENT_THEORY = SGP/SGP4

EPOCH          = 2025-11-26T15:33:02.790144
MEAN_MOTION    = 15.49326400
ECCENTRICITY   = .000244
INCLINATION    = 53.1607
RA_OF_ASC_NODE = 45.1158
ARG_OF_PERICENTER = 42.0326
MEAN_ANOMALY   = 318.0870

EPHEMERIS_TYPE = 0
CLASSIFICATION_TYPE = U
NORAD_CAT_ID   = 66262
ELEMENT_SET_NO = 999
REV_AT_EPOCH   = 539
BSTAR          = .14838E-2
MEAN_MOTION_DOT = .83009E-3
MEAN_MOTION_DDOT = 0

CCSDS_OMM_VERS = 2.0
CREATION_DATE  = 
ORIGINATOR     = 

OBJECT_NAME    = STARLINK-35801
OBJECT_ID      = 2025-247A
CENTER_NAME    = EARTH
REF_FRAME      = TEME
TIME_SYSTEM    = UTC
MEAN_ELEMENT_THEORY = SGP/SGP4

EPOCH          = 2025-11-26T19:18:33.406848
MEAN_MOTION    = 15.39623898
ECCENTRICITY   = .0001286
INCLINATION    = 53.1602
RA_OF_ASC_NODE = 312.7333
ARG_OF_PERICENTER = 105.0321
MEAN_ANOMALY   = 255.0826

EPHEMERIS_TYPE = 0
CLASSIFICATION_TYPE = U
NORAD_CAT_ID   = 66265
ELEMENT_SET_NO = 999
REV_AT_EPOCH   = 523
BSTAR          = .13939E-2
MEAN_MOTION_DOT = .55772E-3
MEAN_MOTION_DDOT = 0

CCSDS_OMM_VERS = 2.0
CREATION_DATE  = 
ORIGINATOR     = 

OBJECT_NAME    = STARLINK-35056
OBJECT_ID      = 2025-247B
CENTER_NAME    = EARTH
REF_FRAME      = TEME
TIME_SYSTEM    = UTC
MEAN_ELEMENT_THEORY = SGP/SGP4

EPOCH          = 2025-11-26T19:18:04.436928
MEAN_MOTION    = 15.39636807
ECCENTRICITY   = .0001468
INCLINATION    = 53.1608
RA_OF_ASC_NODE = 312.7309
ARG_OF_PERICENTER = 85.9939
MEAN_ANOMALY   = 274.1234

EPHEMERIS_TYPE = 0
CLASSIFICATION_TYPE = U
NORAD_CAT_ID   = 66266
ELEMENT_SET_NO = 999
REV_AT_EPOCH   = 523
BSTAR          = .18088E-2
MEAN_MOTION_DOT = .72686E-3
MEAN_MOTION_DDOT = 0

CCSDS_OMM_VERS = 2.0
CREATION_DATE  = 
ORIGINATOR     = 

OBJECT_NAME    = STARLINK-35550
OBJECT_ID      = 2025-247C
CENTER_NAME    = EARTH
REF_FRAME      = TEME
TIME_SYSTEM    = UTC
MEAN_ELEMENT_THEORY = SGP/SGP4

EPOCH          = 2025-11-26T20:00:01.000224
MEAN_MOTION    = 15.39557751
ECCENTRICITY   = .0001365
INCLINATION    = 53.1596
RA_OF_ASC_NODE = 311.1720
ARG_OF_PERICENTER = 88.7773
MEAN_ANOMALY   = 48.1998

EPHEMERIS_TYPE = 0
CLASSIFICATION_TYPE = U
NORAD_CAT_ID   = 66267
ELEMENT_SET_NO = 999
REV_AT_EPOCH   = 500
BSTAR          = .25611E-2
MEAN_MOTION_DOT = .103228E-2
MEAN_MOTION_DDOT = 0

