STARLINK-35488          
1 66254U 25245W   25330.65069623  .00078956  00000+0  14124-2 0  9999
2 66254  53.1608  45.1344 0002007  48.5980 311.5201 15.49328186  5445
STARLINK-35616          
1 66255U 25245X   25330.83334491 -.00110769  00000+0 -20087-2 0  9994
2 66255  53.1596  44.2552 0001195  88.0246 213.3285 15.49353096  5544
STARLINK-35619          
1 66256U 25245Y   25330.58480882  .00114127  00000+0  20222-2 0  9994
2 66256  53.1605  45.4325 0001321 157.1070 202.9998 15.49421781  5431
STARLINK-35615          
1 66257U 25245Z   25330.84283377  .01450089  00000+0  21940-1 0  9992
2 66257  53.1593  44.1958 0006794 308.0037  52.0359 15.51448200  5472
STARLINK-34650          
1 66258U 25245AA  25330.71451559  .00087051  00000+0  15549-2 0  9991
2 66258  53.1603  44.8185 0001434  44.7382 315.3742 15.49326393  5451
STARLINK-35529          
1 66259U 25245AB  25330.64863203  .00035920  00000+0  65035-3 0  9991
2 66259  53.1607  45.1213 0001712   9.4036 350.7005 15.49333702  5441
STARLINK-35420          
1 66260U 25245AC  25330.39094122  .00065175  00000+0  11676-2 0  9997
2 66260  53.1599  46.3553 0001117 112.7213 247.3915 15.49372010  5409
STARLINK-35536          
1 66261U 25245AD  25330.39025508  .00064298  00000+0  11521-2 0  9994
2 66261  53.1609  46.3508 0001115  87.8161 272.2976 15.49371337  5409
STARLINK-35487          
1 66262U 25245AE  25330.64794896  .00083009  00000+0  14838-2 0  9991
2 66262  53.1607  45.1158 0002440  42.0326 318.0870 15.49326400  5395
STARLINK-35801          
1 66265U 25247A   25330.80455332  .00055772  00000+0  13939-2 0  9990
2 66265  53.1602 312.7333 0001286 105.0321 255.0826 15.39623898  5237
STARLINK-35056          
1 66266U 25247B   25330.80421802  .00072686  00000+0  18088-2 0  9999
2 66266  53.1608 312.7309 0001468  85.9939 274.1234 15.39636807  5239
STARLINK-35550          
1 66267U 25247C   25330.83334491  .00103228  00000+0  25611-2 0  9997
2 66267  53.1596 311.1720 0001365  88.7773  48.1998 15.39557751  5000
